{"type": "FeatureCollection", "features": [ {"type": "Feature", "properties": {"norad_id": 30396, "name": "FENGYUN 1C DEB", "group": "fengyun-1c-debris", "lat": -26.01292195637528, "lon": -179.7718862397572, "alt_km": 986.7244327529152, "timestamp": "2025-12-27T04:40:45.781751+00:00", "meta": {"OBJECT_NAME": "FENGYUN 1C DEB", "OBJECT_ID": "1999-025ADK", "EPOCH": "2025-12-26T22:48:42.475104", "MEAN_MOTION": 13.87173251, "ECCENTRICITY": 0.0135257, "INCLINATION": 98.224, "RA_OF_ASC_NODE": 4.0599, "ARG_OF_PERICENTER": 90.6945, "MEAN_ANOMALY": 333.8769, "EPHEMERIS_TYPE": 0, "CLASSIFICATION_TYPE": "U", "NORAD_CAT_ID": 30396, "ELEMENT_SET_NO": 999, "REV_AT_EPOCH": 95776, "BSTAR": 0.00012960056, "MEAN_MOTION_DOT": 1.28e-06, "MEAN_MOTION_DDOT": 0}, "tle": {"line1": "1 30396U 99025ADK 25360.95049161  .00000128  00000+0  12960-3 0  9998", "line2": "2 30396  98.2240   4.0599 0135257  90.6945 333.8769 13.87173251957762"}}, "geometry": {"type": "Point", "coordinates": [-179.7718862397572, -26.01292195637528]}}, {"type": "Feature", "properties": {"norad_id": 30397, "name": "FENGYUN 1C DEB", "group": "fengyun-1c-debris", "lat": -36.06246706744489, "lon": 154.38945102702388, "alt_km": 900.0363334729382, "timestamp": "2025-12-27T04:40:45.781760+00:00", "meta": {"OBJECT_NAME": "FENGYUN 1C DEB", "OBJECT_ID": "1999-025ADL", "EPOCH": "2025-12-26T15:23:33.154080", "MEAN_MOTION": 13.98633404, "ECCENTRICITY": 0.0149429, "INCLINATION": 98.4065, "RA_OF_ASC_NODE": 147.6997, "ARG_OF_PERICENTER": 53.4916, "MEAN_ANOMALY": 5.8397, "EPHEMERIS_TYPE": 0, "CLASSIFICATION_TYPE": "U", "NORAD_CAT_ID": 30397, "ELEMENT_SET_NO": 999, "REV_AT_EPOCH": 95959, "BSTAR": 0.0012176, "MEAN_MOTION_DOT": 1.885e-05, "MEAN_MOTION_DDOT": 0}, "tle": {"line1": "1 30397U 99025ADL 25360.64135595  .00001885  00000+0  12176-2 0  9991", "line2": "2 30397  98.4065 147.6997 0149429  53.4916   5.8397 13.98633404959596"}}, "geometry": {"type": "Point", "coordinates": [154.38945102702388, -36.06246706744489]}}, {"type": "Feature", "properties": {"norad_id": 30398, "name": "FENGYUN 1C DEB", "group": "fengyun-1c-debris", "lat": 67.12667610356894, "lon": -125.88255653652621, "alt_km": 1086.8990226253072, "timestamp": "2025-12-27T04:40:45.781770+00:00", "meta": {"OBJECT_NAME": "FENGYUN 1C DEB", "OBJECT_ID": "1999-025ADM", "EPOCH": "2025-12-26T16:17:13.186176", "MEAN_MOTION": 13.78712064, "ECCENTRICITY": 0.01724028, "INCLINATION": 99.7144, "RA_OF_ASC_NODE": 257.5451, "ARG_OF_PERICENTER": 259.6106, "MEAN_ANOMALY": 127.8207, "EPHEMERIS_TYPE": 0, "CLASSIFICATION_TYPE": "U", "NORAD_CAT_ID": 30398, "ELEMENT_SET_NO": 999, "REV_AT_EPOCH": 94949, "BSTAR": 0.00044531222, "MEAN_MOTION_DOT": 4.57e-06, "MEAN_MOTION_DDOT": 0}, "tle": {"line1": "1 30398U 99025ADM 25360.67862484  .00000457  00000+0  44531-3 0  9994", "line2": "2 30398  99.7144 257.5451 0172402 259.6106 127.8207 13.78712064949494"}}, "geometry": {"type": "Point", "coordinates": [-125.88255653652621, 67.12667610356894]}}, {"type": "Feature", "properties": {"norad_id": 30400, "name": "FENGYUN 1C DEB", "group": "fengyun-1c-debris", "lat": 80.07146720731508, "lon": -138.14273960575048, "alt_km": 992.1518231289183, "timestamp": "2025-12-27T04:40:45.781781+00:00", "meta": {"OBJECT_NAME": "FENGYUN 1C DEB", "OBJECT_ID": "1999-025ADP", "EPOCH": "2025-12-26T18:11:23.273664", "MEAN_MOTION": 14.10218375, "ECCENTRICITY": 0.02252674, "INCLINATION": 99.1563, "RA_OF_ASC_NODE": 288.5445, "ARG_OF_PERICENTER": 296.893, "MEAN_ANOMALY": 90.3082, "EPHEMERIS_TYPE": 0, "CLASSIFICATION_TYPE": "U", "NORAD_CAT_ID": 30400, "ELEMENT_SET_NO": 999, "REV_AT_EPOCH": 95712, "BSTAR": 0.0040941818, "MEAN_MOTION_DOT": 9.147e-05, "MEAN_MOTION_DDOT": 0}, "tle": {"line1": "1 30400U 99025ADP 25360.75790826  .00009147  00000+0  40942-2 0  9993", "line2": "2 30400  99.1563 288.5445 0225267 296.8930  90.3082 14.10218375957127"}}, "geometry": {"type": "Point", "coordinates": [-138.14273960575048, 80.07146720731508]}}, {"type": "Feature", "properties": {"norad_id": 30401, "name": "FENGYUN 1C DEB", "group": "fengyun-1c-debris", "lat": -42.99517609019847, "lon": -113.11587744258647, "alt_km": 853.8531631857522, "timestamp": "2025-12-27T04:40:45.781791+00:00", "meta": {"OBJECT_NAME": "FENGYUN 1C DEB", "OBJECT_ID": "1999-025ADQ", "EPOCH": "2025-12-26T22:09:29.722752", "MEAN_MOTION": 14.28002757, "ECCENTRICITY": 0.01081478, "INCLINATION": 98.9464, "RA_OF_ASC_NODE": 238.1602, "ARG_OF_PERICENTER": 86.6906, "MEAN_ANOMALY": 274.6639, "EPHEMERIS_TYPE": 0, "CLASSIFICATION_TYPE": "U", "NORAD_CAT_ID": 30401, "ELEMENT_SET_NO": 999, "REV_AT_EPOCH": 98506, "BSTAR": 0.00017036753, "MEAN_MOTION_DOT": 4.04e-06, "MEAN_MOTION_DDOT": 0}, "tle": {"line1": "1 30401U 99025ADQ 25360.92326068  .00000404  00000+0  17037-3 0  9993", "line2": "2 30401  98.9464 238.1602 0108147  86.6906 274.6639 14.28002757985069"}}, "geometry": {"type": "Point", "coordinates": [-113.11587744258647, -42.99517609019847]}}, {"type": "Feature", "properties": {"norad_id": 30403, "name": "FENGYUN 1C DEB", "group": "fengyun-1c-debris", "lat": 24.12152874922745, "lon": -95.90394660308439, "alt_km": 872.5522198988228, "timestamp": "2025-12-27T04:40:45.781800+00:00", "meta": {"OBJECT_NAME": "FENGYUN 1C DEB", "OBJECT_ID": "1999-025ADS", "EPOCH": "2025-12-26T16:07:32.697408", "MEAN_MOTION": 14.21641281, "ECCENTRICITY": 0.00744929, "INCLINATION": 99.0585, "RA_OF_ASC_NODE": 79.463, "ARG_OF_PERICENTER": 341.9314, "MEAN_ANOMALY": 17.9217, "EPHEMERIS_TYPE": 0, "CLASSIFICATION_TYPE": "U", "NORAD_CAT_ID": 30403, "ELEMENT_SET_NO": 999, "REV_AT_EPOCH": 97004, "BSTAR": 0.0018812884, "MEAN_MOTION_DOT": 4.201e-05, "MEAN_MOTION_DDOT": 0}, "tle": {"line1": "1 30403U 99025ADS 25360.67190622  .00004201  00000+0  18813-2 0  9993", "line2": "2 30403  99.0585  79.4630 0074492 341.9314  17.9217 14.21641281970045"}}, "geometry": {"type": "Point", "coordinates": [-95.90394660308439, 24.12152874922745]}}, {"type": "Feature", "properties": {"norad_id": 30404, "name": "FENGYUN 1C DEB", "group": "fengyun-1c-debris", "lat": 2.768655485858283, "lon": 91.95131137613, "alt_km": 1166.2200906865637, "timestamp": "2025-12-27T04:40:45.781811+00:00", "meta": {"OBJECT_NAME": "FENGYUN 1C DEB", "OBJECT_ID": "1999-025ADT", "EPOCH": "2025-12-19T23:54:32.428224", "MEAN_MOTION": 13.34354549, "ECCENTRICITY": 0.03762973, "INCLINATION": 99.8326, "RA_OF_ASC_NODE": 85.5019, "ARG_OF_PERICENTER": 119.2039, "MEAN_ANOMALY": 244.7273, "EPHEMERIS_TYPE": 0, "CLASSIFICATION_TYPE": "U", "NORAD_CAT_ID": 30404, "ELEMENT_SET_NO": 999, "REV_AT_EPOCH": 58133, "BSTAR": 0.00058436057, "MEAN_MOTION_DOT": 3.95e-06, "MEAN_MOTION_DDOT": 0}, "tle": {"line1": "1 30404U 99025ADT 25353.99620866  .00000395  00000+0  58436-3 0  9995", "line2": "2 30404  99.8326  85.5019 0376297 119.2039 244.7273 13.34354549581337"}}, "geometry": {"type": "Point", "coordinates": [91.95131137613, 2.768655485858283]}}, {"type": "Feature", "properties": {"norad_id": 30405, "name": "FENGYUN 1C DEB", "group": "fengyun-1c-debris", "lat": -4.46807217391338, "lon": 95.99522044176544, "alt_km": 814.8356371207756, "timestamp": "2025-12-27T04:40:45.781821+00:00", "meta": {"OBJECT_NAME": "FENGYUN 1C DEB", "OBJECT_ID": "1999-025ADU", "EPOCH": "2025-12-26T22:16:53.948352", "MEAN_MOTION": 14.29032421, "ECCENTRICITY": 0.00507263, "INCLINATION": 98.7926, "RA_OF_ASC_NODE": 95.0335, "ARG_OF_PERICENTER": 113.3983, "MEAN_ANOMALY": 312.1089, "EPHEMERIS_TYPE": 0, "CLASSIFICATION_TYPE": "U", "NORAD_CAT_ID": 30405, "ELEMENT_SET_NO": 999, "REV_AT_EPOCH": 97598, "BSTAR": 0.0018548796, "MEAN_MOTION_DOT": 4.719e-05, "MEAN_MOTION_DDOT": 0}, "tle": {"line1": "1 30405U 99025ADU 25360.92840218  .00004719  00000+0  18549-2 0  9996", "line2": "2 30405  98.7926  95.0335 0050726 113.3983 312.1089 14.29032421975988"}}, "geometry": {"type": "Point", "coordinates": [95.99522044176544, -4.46807217391338]}}, {"type": "Feature", "properties": {"norad_id": 30406, "name": "FENGYUN 1C DEB", "group": "fengyun-1c-debris", "lat": -66.4821980945753, "lon": -89.45450373500387, "alt_km": 863.1098943508441, "timestamp": "2025-12-27T04:40:45.781831+00:00", "meta": {"OBJECT_NAME": "FENGYUN 1C DEB", "OBJECT_ID": "1999-025ADV", "EPOCH": "2025-12-25T16:02:12.712416", "MEAN_MOTION": 13.59264287, "ECCENTRICITY": 0.0282863, "INCLINATION": 98.6211, "RA_OF_ASC_NODE": 248.7986, "ARG_OF_PERICENTER": 326.4016, "MEAN_ANOMALY": 60.1601, "EPHEMERIS_TYPE": 0, "CLASSIFICATION_TYPE": "U", "NORAD_CAT_ID": 30406, "ELEMENT_SET_NO": 999, "REV_AT_EPOCH": 93342, "BSTAR": 0.0021391, "MEAN_MOTION_DOT": 2.013e-05, "MEAN_MOTION_DDOT": 0}, "tle": {"line1": "1 30406U 99025ADV 25359.66820269  .00002013  00000+0  21391-2 0  9994", "line2": "2 30406  98.6211 248.7986 0282863 326.4016  60.1601 13.59264287933429"}}, "geometry": {"type": "Point", "coordinates": [-89.45450373500387, -66.4821980945753]}}, {"type": "Feature", "properties": {"norad_id": 30409, "name": "FENGYUN 1C DEB", "group": "fengyun-1c-debris", "lat": -7.576488001567287, "lon": 166.47292604358913, "alt_km": 972.9034911647568, "timestamp": "2025-12-27T04:40:45.781841+00:00", "meta": {"OBJECT_NAME": "FENGYUN 1C DEB", "OBJECT_ID": "1999-025ADY", "EPOCH": "2025-12-26T22:46:12.870048", "MEAN_MOTION": 14.03778798, "ECCENTRICITY": 0.01672387, "INCLINATION": 98.4743, "RA_OF_ASC_NODE": 347.3795, "ARG_OF_PERICENTER": 325.5709, "MEAN_ANOMALY": 59.7101, "EPHEMERIS_TYPE": 0, "CLASSIFICATION_TYPE": "U", "NORAD_CAT_ID": 30409, "ELEMENT_SET_NO": 999, "REV_AT_EPOCH": 96629, "BSTAR": 0.00096249692, "MEAN_MOTION_DOT": 1.675e-05, "MEAN_MOTION_DDOT": 0}, "tle": {"line1": "1 30409U 99025ADY 25360.94876007  .00001675  00000+0  96250-3 0  9991", "line2": "2 30409  98.4743 347.3795 0167238 325.5709  59.7101 14.03778798966298"}}, "geometry": {"type": "Point", "coordinates": [166.47292604358913, -7.576488001567287]}}]}